NORAD_CAT_ID,OBJECT_NAME,OBJECT_TYPE,EPOCH,MEAN_MOTION,ECCENTRICITY,INCLINATION,RA_OF_ASC_NODE,ARG_OF_PERICENTER,MEAN_ANOMALY,BSTAR,MEAN_MOTION_DOT,MEAN_MOTION_DDOT,TLE_LINE0,TLE_LINE1,TLE_LINE2,SEMIMAJOR_AXIS,PERIOD,APOGEE,PERIGEE,DECAYED
51768.0,STARLINK-3622,PAYLOAD,2022-09-03 16:00:00,15.088286800000002,0.0001495,53.2182,338.8299,53.9803,216.7498,0.0029219999999999,0.00046508,0.0,0 STARLINK-3622,1 51768U 22017A   22246.66667824  .00046508  00000-0  29220-2 0  9990,2 51768  53.2182 338.8299 0001495  53.9803 216.7498 15.08828680 30364,6917.915,95.438,540.814,538.746,0.0
51768.0,STARLINK-3622,PAYLOAD,2022-09-03 22:00:00,15.08882565,0.0001418,53.2179,337.7065,57.3527,132.0696,-0.0041243,-0.00065406,0.0,0 STARLINK-3622,1 51768U 22017A   22246.91667824 -.00065406  00000-0 -41243-2 0  9997,2 51768  53.2179 337.7065 0001418  57.3527 132.0696 15.08882565  1309,6917.75,95.435,540.596,538.634,0.0
51768.0,STARLINK-3622,PAYLOAD,2022-09-04 08:00:01,15.08853285,0.0001416,53.2182,335.8356,64.7885,229.1504,-0.00039046,-6.499e-05,0.0,0 STARLINK-3622,1 51768U 22017A   22247.33334491 -.00006499  00000-0 -39046-3 0  9991,2 51768  53.2182 335.8356 0001416  64.7885 229.1504 15.08853285 30464,6917.84,95.437,540.684,538.725,0.0
51768.0,STARLINK-3622,PAYLOAD,2022-09-04 14:00:01,15.08821364,0.000144,53.218,334.7146,54.1972,158.5172,0.0011118,0.00017442,0.0,0 STARLINK-3622,1 51768U 22017A   22247.58335648  .00017442  00000-0  11118-2 0  9990,2 51768  53.2180 334.7146 0001440  54.1972 158.5172 15.08821364  1304,6917.937,95.439,540.799,538.806,0.0
51768.0,STARLINK-3622,PAYLOAD,2022-09-04 20:00:01,15.08844603,0.0001413,53.2176,333.5918,53.4446,77.8864,-0.00014164,-2.542e-05,0.0,0 STARLINK-3622,1 51768U 22017A   22247.83334491 -.00002542  00000-0 -14164-3 0  9995,2 51768  53.2176 333.5918 0001413  53.4446  77.8864 15.08844603  1303,6917.866,95.437,540.7090000000002,538.754,0.0
51768.0,STARLINK-3622,PAYLOAD,2022-09-05 14:00:01,15.08836887,0.000151,53.2177,330.2257,56.4547,190.984,-0.00055941,-9.179e-05,0.0,0 STARLINK-3622,1 51768U 22017A   22248.58334491 -.00009179  00000-0 -55941-3 0  9999,2 51768  53.2177 330.2257 0001510  56.4547 190.9840 15.08836887 30653,6917.89,95.438,540.8,538.71,0.0
51768.0,STARLINK-3622,PAYLOAD,2022-09-05 22:00:00,15.08698006,0.0001267,53.2175,328.7275,62.1777,196.85,0.012586,0.00205112,0.0,0 STARLINK-3622,1 51768U 22017A   22248.91667824  .00205112  00000-0  12586-1 0  9994,2 51768  53.2175 328.7275 0001267  62.1777 196.8500 15.08698006 30704,6918.314,95.447,541.056,539.303,0.0
51768.0,STARLINK-3622,PAYLOAD,2022-09-06 12:00:00,15.08662244,0.0001582,53.2176,326.1095,53.3859,135.9635,0.014279,0.00233452,0.0,0 STARLINK-3622,1 51768U 22017A   22249.50001157  .00233452  00000-0  14279-1 0  9990,2 51768  53.2176 326.1095 0001582  53.3859 135.9635 15.08662244 30797,6918.424,95.449,541.383,539.194,0.0
51768.0,STARLINK-3622,PAYLOAD,2022-09-06 14:00:01,15.08666768,0.0001525,53.2176,325.7359,63.9498,218.3053,0.012822,0.00208897,0.0,0 STARLINK-3622,1 51768U 22017A   22249.58334491  .00208897  00000-0  12822-1 0  9995,2 51768  53.2176 325.7359 0001525  63.9498 218.3053 15.08666768  1308,6918.41,95.449,541.33,539.22,0.0
51768.0,STARLINK-3622,PAYLOAD,2022-09-06 22:00:00,15.08838672,0.0001301,53.2175,324.238,67.8535,225.8703,-0.00025732,-4.381e-05,0.0,0 STARLINK-3622,1 51768U 22017A   22249.91667824 -.00004381  00000-0 -25732-3 0  9991,2 51768  53.2175 324.2380 0001301  67.8535 225.8703 15.08838672 30854,6917.884,95.438,540.649,538.849,0.0
51768.0,STARLINK-3622,PAYLOAD,2022-09-07 06:00:00,15.08831264,0.0001426999999999,53.2172,322.7425,63.9038,241.4893,0.00051526,7.92e-05,0.0,0 STARLINK-3622,1 51768U 22017A   22250.25001157  .00007920  00000-0  51526-3 0  9991,2 51768  53.2172 322.7425 0001427  63.9038 241.4893 15.08831264 30908,6917.906999999997,95.438,540.759,538.785,0.0
51768.0,STARLINK-3622,PAYLOAD,2022-09-07 14:00:01,15.08816581,0.0001605,53.2172,321.248,54.8714,262.1136,0.0024251,0.00038494,0.0,0 STARLINK-3622,1 51768U 22017A   22250.58334491  .00038494  00000-0  24251-2 0  9991,2 51768  53.2172 321.2480 0001605  54.8714 262.1136 15.08816581  1308,6917.9519999999975,95.439,540.927,538.707,0.0
51768.0,STARLINK-3622,PAYLOAD,2022-09-07 22:00:00,15.088544199999998,0.0001533,53.2171,319.7503,57.7886,270.7772,-0.003561,-0.00056539,0.0,0 STARLINK-3622,1 51768U 22017A   22250.91667824 -.00056539  00000-0 -35610-2 0  9990,2 51768  53.2171 319.7503 0001533  57.7886 270.7772 15.08854420  1302,6917.8359999999975,95.437,540.762,538.641,0.0
51768.0,STARLINK-3622,PAYLOAD,2022-09-08 06:00:00,15.08834002,0.0001601,53.2172,318.2537,63.1977,276.9548,0.00022047,3.222e-05,0.0,0 STARLINK-3622,1 51768U 22017A   22251.25001157  .00003222  00000-0  22047-3 0  9999,2 51768  53.2172 318.2537 0001601  63.1977 276.9548 15.08834002 31050,6917.899,95.438,540.871,538.656,0.0
51768.0,STARLINK-3622,PAYLOAD,2022-09-08 14:00:01,15.08812002,0.0001743,53.2172,316.7591,55.2678,296.4745,0.0026809,0.00042604,0.0,0 STARLINK-3622,1 51768U 22017A   22251.58334491  .00042604  00000-0  26809-2 0  9991,2 51768  53.2172 316.7591 0001743  55.2678 296.4745 15.08812002  1307,6917.965999999999,95.439,541.0369999999998,538.625,0.0
51768.0,STARLINK-3622,PAYLOAD,2022-09-09 00:00:02,15.08824781,0.0001520999999999,53.2172,314.8869,58.4453,37.8542,0.00031017,4.650000000000001e-05,0.0,0 STARLINK-3622,1 51768U 22017A   22252.00002315  .00004650  00000-0  31017-3 0  9993,2 51768  53.2172 314.8869 0001521  58.4453  37.8542 15.08824781  1303,6917.927,95.439,540.844,538.74,0.0
51768.0,STARLINK-3622,PAYLOAD,2022-09-09 14:00:01,15.08812472,0.0001703,53.2172,312.2702,51.8166,334.6917,0.0030859,0.0004913,0.0,0 STARLINK-3622,1 51768U 22017A   22252.58334491  .00049130  00000-0  30859-2 0  9993,2 51768  53.2172 312.2702 0001703  51.8166 334.6917 15.08812472  1309,6917.965,95.439,541.008,538.651,0.0
51768.0,STARLINK-3622,PAYLOAD,2022-09-09 22:00:00,15.08852288,0.0001536,53.2173,310.7723,54.5543,343.5389,-0.0028721,-0.00045723,0.0,0 STARLINK-3622,1 51768U 22017A   22252.91667824 -.00045723  00000-0 -28721-2 0  9990,2 51768  53.2173 310.7723 0001536  54.5543 343.5389 15.08852288  1300,6917.843000000003,95.437,540.77,538.645,0.0
51768.0,STARLINK-3622,PAYLOAD,2022-09-10 06:00:02,15.08838191,0.0001512,53.2174,309.2758,55.7105,354.0301,-0.00061203,-0.00010015,0.0,0 STARLINK-3622,1 51768U 22017A   22253.25002315 -.00010015  00000-0 -61203-3 0  9995,2 51768  53.2174 309.2758 0001512  55.7105 354.0301 15.08838191 31359,6917.886,95.438,540.797,538.705,0.0
51768.0,STARLINK-3622,PAYLOAD,2022-09-10 14:00:01,15.08808643,0.0001635,53.217,307.7811,48.3955,12.8752,0.0031576,0.00050281,0.0,0 STARLINK-3622,1 51768U 22017A   22253.58334491  .00050281  00000-0  31576-2 0  9990,2 51768  53.2170 307.7811 0001635  48.3955  12.8752 15.08808643  1305,6917.976,95.44,540.972,538.71,0.0
51768.0,STARLINK-3622,PAYLOAD,2022-09-10 22:00:00,15.08842092,0.0001441999999999,53.217,306.2831,52.2488,20.6074,-0.0019909,-0.00031835,0.0,0 STARLINK-3622,1 51768U 22017A   22253.91667824 -.00031835  00000-0 -19909-2 0  9998,2 51768  53.2170 306.2831 0001442  52.2488  20.6074 15.08842092  1302,6917.874,95.437,540.737,538.741,0.0
51768.0,STARLINK-3622,PAYLOAD,2022-09-11 14:00:01,15.0880875,0.0001564,53.2166,303.2919,45.3572,50.673,0.0033787,0.00053849,0.0,0 STARLINK-3622,1 51768U 22017A   22254.58334491  .00053849  00000-0  33787-2 0  9990,2 51768  53.2166 303.2919 0001564  45.3572  50.6730 15.08808750  1308,6917.976,95.44,540.923,538.759,0.0
51768.0,STARLINK-3622,PAYLOAD,2022-09-11 22:00:00,15.08827747,0.0001392,53.2166,301.7938,51.4979,56.1165,0.0014012,0.00022075,0.0,0 STARLINK-3622,1 51768U 22017A   22254.91667824  .00022075  00000-0  14012-2 0  9993,2 51768  53.2166 301.7938 0001392  51.4979  56.1165 15.08827747  1300,6917.918000000002,95.438,540.746,538.82,0.0
51768.0,STARLINK-3622,PAYLOAD,2022-09-12 06:00:00,15.08875883,0.0001488,53.2165,300.2978,53.8065,65.3926,-0.0036065,-0.00057285,0.0,0 STARLINK-3622,1 51768U 22017A   22255.25001157 -.00057285  00000-0 -36065-2 0  9997,2 51768  53.2165 300.2978 0001488  53.8065  65.3926 15.08875883 31657,6917.771,95.435,540.665,538.606,0.0
51768.0,STARLINK-3622,PAYLOAD,2022-09-12 14:00:01,15.08806426,0.0001659,53.216,298.8025,48.6031,82.2178,0.0033014,0.00052598,0.0,0 STARLINK-3622,1 51768U 22017A   22255.58334491  .00052598  00000-0  33014-2 0  9994,2 51768  53.2160 298.8025 0001659  48.6031  82.2178 15.08806426  1305,6917.983,95.44,540.996,538.7,0.0
51768.0,STARLINK-3622,PAYLOAD,2022-09-12 22:00:00,15.08822685,0.0001492,53.216,297.3043,55.0888,87.3162,0.0019278,0.00030512,0.0,0 STARLINK-3622,1 51768U 22017A   22255.91667824  .00030512  00000-0  19278-2 0  9998,2 51768  53.2160 297.3043 0001492  55.0888  87.3162 15.08822685 31752,6917.933000000001,95.439,540.83,538.766,0.0
51768.0,STARLINK-3622,PAYLOAD,2022-09-13 14:00:01,15.08832172,0.0001636999999999,53.2156,294.313,48.0869,117.5246,0.00090025,0.00014065,0.0,0 STARLINK-3622,1 51768U 22017A   22256.58334491  .00014065  00000-0  90025-3 0  9998,2 51768  53.2156 294.3130 0001637  48.0869 117.5246 15.08832172  1302,6917.904,95.438,540.9019999999998,538.637,0.0
51768.0,STARLINK-3622,PAYLOAD,2022-09-13 18:00:00,15.08848167,0.0001556,53.2158,293.5633,48.8694,302.5358,-0.0015183,-0.00024376,0.0,0 STARLINK-3622,1 51768U 22017A   22256.75001157 -.00024376  00000-0 -15183-2 0  9996,2 51768  53.2158 293.5633 0001556  48.8694 302.5358 15.08848167 31884,6917.855,95.437,540.797,538.644,0.0
51768.0,STARLINK-3622,PAYLOAD,2022-09-13 22:00:00,15.08814781,0.0001437,53.2156,292.8146,53.6163,123.5831,0.0022021999999999,0.0003491,0.0,0 STARLINK-3622,1 51768U 22017A   22256.91667824  .00034910  00000-0  22022-2 0  9996,2 51768  53.2156 292.8146 0001437  53.6163 123.5831 15.08814781  1302,6917.956999999999,95.439,540.817,538.828,0.0
